{
  "norad_id": 52542,
  "name": "STARLINK-3937",
  "history": [
    {
      "epoch": "2026-03-28T21:21:58.655808Z",
      "apogee_km": 540.7240858649029,
      "perigee_km": 538.752629745436,
      "latitude_deg": -1.5095373427357921e-05,
      "longitude_deg": -103.87322883048068,
      "height_km": 540.5140379176589,
      "semi_major_axis_km": 6917.875357805169,
      "eccentricity": 0.00014249,
      "inclination_deg": 53.2191,
      "raan_deg": 42.9254,
      "arg_perigee_deg": 82.9996,
      "mean_anomaly_deg": 277.1158,
      "mean_motion_rev_day": 15.08841646
    },
    {
      "epoch": "2026-03-29T03:43:31.895328Z",
      "apogee_km": 540.7269377203602,
      "perigee_km": 538.810677811608,
      "latitude_deg": 1.7065669169001383e-05,
      "longitude_deg": 159.28833268957493,
      "height_km": 540.6919829706667,
      "semi_major_axis_km": 6917.905807765984,
      "eccentricity": 0.0001385,
      "inclination_deg": 53.2181,
      "raan_deg": 41.7366,
      "arg_perigee_deg": 91.6408,
      "mean_anomaly_deg": 268.4743,
      "mean_motion_rev_day": 15.08831684
    },
    {
      "epoch": "2026-03-30T03:34:19.750080Z",
      "apogee_km": 540.6630265445292,
      "perigee_km": 538.8560719658626,
      "latitude_deg": -6.451795250342344e-06,
      "longitude_deg": 156.14657486200477,
      "height_km": 540.520755343309,
      "semi_major_axis_km": 6917.896549255195,
      "eccentricity": 0.0001306,
      "inclination_deg": 53.2173,
      "raan_deg": 37.2736,
      "arg_perigee_deg": 81.4331,
      "mean_anomaly_deg": 278.6809,
      "mean_motion_rev_day": 15.08834713
    },
    {
      "epoch": "2026-03-30T03:34:19.750944Z",
      "apogee_km": 540.6630957234938,
      "perigee_km": 538.8560027868971,
      "latitude_deg": 7.323225043879178e-05,
      "longitude_deg": 156.14663049912727,
      "height_km": 540.5207330235588,
      "semi_major_axis_km": 6917.896549255195,
      "eccentricity": 0.00013061,
      "inclination_deg": 53.2173,
      "raan_deg": 37.2736,
      "arg_perigee_deg": 81.4331,
      "mean_anomaly_deg": 278.681,
      "mean_motion_rev_day": 15.08834713
    },
    {
      "epoch": "2026-03-30T21:03:34.599456Z",
      "apogee_km": 540.8733935832943,
      "perigee_km": 538.7004736757408,
      "latitude_deg": 8.940200232193943e-06,
      "longitude_deg": -110.1522696391777,
      "height_km": 540.8110654916238,
      "semi_major_axis_km": 6917.923933629517,
      "eccentricity": 0.00015705,
      "inclination_deg": 53.2195,
      "raan_deg": 34.0048,
      "arg_perigee_deg": 96.792,
      "mean_anomaly_deg": 263.3251,
      "mean_motion_rev_day": 15.08825754
    }
  ]
}